[{"OBJECT_NAME":"STARLINK-1496","OBJECT_ID":"2020-038BC","EPOCH":"2026-03-10T00:00:02.999808","MEAN_MOTION":15.48347151,"ECCENTRICITY":0.00033744,"INCLINATION":53.051,"RA_OF_ASC_NODE":176.3369,"ARG_OF_PERICENTER":214.9086,"MEAN_ANOMALY":342.5433,"EPHEMERIS_TYPE":0,"CLASSIFICATION_TYPE":"U","NORAD_CAT_ID":45780,"ELEMENT_SET_NO":999,"REV_AT_EPOCH":585,"BSTAR":0.00060703764,"MEAN_MOTION_DOT":0.0003234,"MEAN_MOTION_DDOT":0},{"OBJECT_NAME":"COSMOS 2561","OBJECT_ID":"2022-137A","EPOCH":"2026-03-09T19:59:13.468128","MEAN_MOTION":15.49066239,"ECCENTRICITY":0.0010723,"INCLINATION":96.9316,"RA_OF_ASC_NODE":131.6532,"ARG_OF_PERICENTER":40.6678,"MEAN_ANOMALY":319.5373,"EPHEMERIS_TYPE":0,"CLASSIFICATION_TYPE":"U","NORAD_CAT_ID":54109,"ELEMENT_SET_NO":999,"REV_AT_EPOCH":19095,"BSTAR":0.00030274,"MEAN_MOTION_DOT":0.0001638,"MEAN_MOTION_DDOT":0}]
